#dP2020  6  9  0  0  0.00000000      96 __u+U ITR00 FIT  IAC
## 2109 172800.00000000   900.00000000 59009 0.0000000000000
+  117   C06C07C08C09C10C11C12C13C14C16C19C20C21C22C23C24C25
+        C26C27C28C29C30C32C33C34C35C36C37C38C39C40C43C44C45
+        C46E01E02E03E04E05E07E08E09E11E12E13E14E15E18E19E21
+        E24E25E26E27E30E31E33E36G01G02G03G04G05G06G07G08G09
+        G10G11G12G13G14G15G16G17G18G19G20G21G22G23G24G25G26
+        G27G28G29G30G31G32J01J02J03R01R02R03R04R05R07R08R09
+        R11R12R13R14R15R16R17R18R19R20R21R22R23R24R26  0  0
++         9 10  9  7  9  8  7 10  6  8  9  8  7  6  8  9  7
++         9  8  6  9  8  7  6  7  7 10  9  0 12  0  7 10 11
++         9  7  6  7  7  6  6  7  7  7  7  7  6  7  7  6  6
++         6  7  6  6  7  6  6  7  6  6  6  7  7  7  6  6  6
++         6  6  7  6  7  6  7  6  8  6  6  6  7  6  6  6  7
++         6  6  7  6  6  6  8  9  7  7  6  6  7  7  7  6  8
++         7  6  6  6  7  7  7  7  7  8  7 12  7  6  7  0  0
%c M  cc GPS ccc cccc cccc cccc cccc ccccc ccccc ccccc ccccc
%c cc cc ccc ccc cccc cccc cccc cccc ccccc ccccc ccccc ccccc
%f  0.0000000  0.000000000  0.00000000000  0.000000000000000
%f  0.0000000  0.000000000  0.00000000000  0.000000000000000
%i    0    0    0    0      0      0      0      0         0
%i    0    0    0    0      0      0      0      0         0
/* INFORMATION & ANALYSIS CENTER (IAC)      ULTRA-RAPID DATA
/* S/V CLOCKS ARE ALIGNED TO GNSS TIME                      
/* G:C1WC2W R:C1PC2P E:C1XC5X C:C2IC6I J:C1CC2S             
/* PCV:IGS14_2101 OL/AL:FES2004  NONE     YN ORB:CoN CLK:CoN
*  2020 06 09 15 15  0.00000000
PC06  -7330.820406  28679.364104  30589.765395    749.640033
PC07 -22671.732807  24370.774583 -25968.338219     60.517246
PC08 -18780.446313  37467.413323  -2517.885231   -301.407762
PC09   6877.050201  37284.912074  19129.529213 999999.999999
PC10  -5491.412881  26651.252829 -32106.612088   -266.902259
PC11  10251.644767  25867.474522   1801.577397   -417.744968
PC12  -2440.989964  23118.343995 -15393.785646    396.190627
PC13  -8875.785399  39415.172389  11693.909366    481.498256
PC14  12479.086511  15779.842800  19347.601098    511.142692
PC16  -4057.969081  30169.313818  29335.629981   -621.600923
PC19 -21270.650756 -12600.011527 -12932.949989    438.857591
PC20  -3039.834029 -16299.178380 -22428.138894   -856.159391
PC21 -17761.537364  10373.523250  18895.442738   -506.173175
PC22 -27551.842955  -1569.820303   4280.726961   -788.681881
PC23  21093.438283  -5888.402153 -17285.251673   -856.924854
PC24  -6016.745411  23060.066331 -14507.594328   -796.478925
PC25  11373.961202  11557.029142 -22712.476061   -646.051126
PC26 -18189.204526  21100.493292   1333.828903    711.905518
PC27   9474.195415 -16166.163436  20652.953464    344.600497
PC28  17180.413542   3770.123651  21661.765817   -217.148459
PC29 -15628.939979 -20846.204699 -10001.577798    240.144446
PC30  -4498.453751 -26382.456288   7858.781731    329.508991
PC32  17643.011519 -10509.710977 -18868.260752   -880.696994
PC33  21229.055593  12571.118295  13030.917303   -816.891572
PC34   4749.308234  26495.760596  -7418.945031   -795.571584
PC35 -17383.823791  -3333.125229 -21570.918235 999999.999999
PC36 -10918.942859 -12028.298446  22716.090803   -842.849994
PC37  18968.618589 -20379.099213  -1953.528974   -849.242279
PC38 -15990.329642  38896.965657   1660.442505 999999.999999
PC39    -82.379815  31410.434502  28179.449019     17.335228
PC40 -13581.814072  21488.795836 -33676.971320 999999.999999
PC43  15428.366805  21153.128310   9683.499256   -231.070484
PC44  -9162.175373  16387.889163 -20664.203698 999999.999999
PC45 -21000.813413   5991.117708  17374.213470 999999.999999
PC46   5575.008603 -22921.782953  14939.658951    793.213700
PE01 -25217.126940    351.698922  15499.076167   -874.187190
PE02  25262.237666   -425.161624 -15429.053083    139.247362
PE03  26166.619245  10717.541429  -8718.932395   -307.972062
PE04 -18916.560277   5858.430401  22013.615987   -542.463842
PE05  18154.726453  21205.495390   9847.035896   -373.056551
PE07    369.823187 -19225.257803 -22493.676507   -393.383948
PE08  18630.703195  -6052.087849 -22177.331858   6166.205880
PE09   -107.981249  19150.460546  22577.406858   6033.974004
PE11  -4897.133003  28922.509215  -4050.637210   3354.683250
PE12 -14659.332693  15715.252602 -20366.108292   5763.584854
PE13   4908.595647 -28869.523430   4288.127399    401.467468
PE14  -2803.131248 -21387.804960  12702.067401  -1043.620687
PE15  14470.495268 -15960.600452  20298.041036    864.105063
PE18  -6891.020015  21529.841369 -21998.971150  -1144.260595
PE19 -26047.659008 -12280.198231   6859.687628  -3395.258933
PE21 -10043.307371 -13307.091859  24457.006021   -603.636492
PE24 -11586.669633  19443.665133 -19078.332807   5411.453157
PE25   9898.898228  13384.419576 -24470.407483   -511.889123
PE26  -7724.638209 -24606.723189 -14526.617097   3092.467162
PE27  11263.156836 -19465.867989  19248.713409    202.077382
PE30  26068.891975 -13823.317193   2384.527617   3839.722315
PE31 -25854.045837  14154.185385  -2747.436306   -472.810002
PE33 -15534.961621  -6314.159623 -24388.855939   -466.297140
PE36   7534.796586  24836.228293  14240.668489    549.174995
PG01  14484.979260 -19518.309348  10068.593776      3.734890
PG02 -15119.138404  -1111.172625 -21169.676615   -469.458417
PG03  19854.382128 -12317.497391 -12589.456923   -203.392111
PG04   8217.786132 -13639.638779 -21239.731403   -100.305845
PG05 -25951.032401    910.501156  -6200.943026    -14.317416
PG06  -9607.231902 -13791.693783 -20500.294088   -285.952315
PG07   4126.636459 -25089.508204   7039.068557   -300.561552
PG08  16499.588745  -2651.067901  20714.609897    -36.948975
PG09  -2816.840695 -20883.627634 -16205.852134   -233.196003
PG10  11058.596314  12596.753940  20745.736587   -366.328767
PG11  13236.205497 -12539.073637  18919.649701   -253.521216
PG12 -20720.413661  10780.462724 -12731.941415    108.067389
PG13 -18640.928465  -6467.341813  17708.061192     16.918427
PG14  18228.503642  18367.971338  -6049.919970     -7.086806
PG15 -16407.296402   5029.589880  20039.614516   -225.423022
PG16  26523.402584    472.133599  -4051.794740   -168.390591
PG17 -14213.581836 -22327.451615   2908.414901    278.143225
PG18  -5065.615194  25234.183067   6502.527192    215.272136
PG19 -17670.717583 -19024.383390  -5966.417477   -147.469588
PG20  -1334.673502  16464.511842  20683.037551    527.547662
PG21   3506.708722  23029.442184  13799.876200      9.454181
PG22  24324.702519  -9582.706552  -4024.161133   -778.809704
PG23  -9106.991679 -22132.819101 -10735.883286   -107.210202
PG24 -14492.200202  18572.595647  11700.658068    -14.113259
PG25 -11399.376640  15147.626746 -18733.319099     11.462899
PG26  21125.180550   6507.499909 -14918.907053    222.242566
PG27  20294.327518   8439.860005  15006.359601   -316.118815
PG28 -11268.128441 -13095.165780  20715.494493    710.131255
PG29  -1658.815928  18815.261806 -18705.500933   -123.982426
PG30  -3905.269178 -21011.884484  15675.458032   -238.106685
PG31  10983.074682  12140.738736 -20864.528766    -48.005982
PG32  16226.694833  21059.420540   1818.185514    296.853033
PJ01 -29096.120340  22098.408473  26147.654559   -289.982995
PJ02 -35658.881705  22210.716273    472.626340     -0.420944
PJ03 -19487.291314  24008.282602 -24093.862090     -3.907409
PR01 -18603.906244 -12647.415753 -12034.530511     62.822659
PR02 -23475.116455  -4259.448229   8994.927782    430.786107
PR03 -12689.334586   6133.745385  21296.118589     16.495787
PR04   5229.030918  12714.343332  21518.359769     52.144322
PR05  20194.999080  12317.518336   9586.101576     52.003924
PR07  12241.547871  -6351.507301 -21425.722386    -37.394619
PR08  -5208.720418 -12797.354649 -21380.108962    -52.754689
PR09  20597.551699 -10457.728033 -10724.978388    137.134265
PR11   5676.862625 -16518.270669  18582.259026    -26.501642
PR12  -9223.652357  -6440.014797  22918.835545    137.695236
PR13 -19650.867775   7882.293217  14214.644780    -39.776031
PR14 -18542.444831  17282.812226  -2927.390816     52.108424
PR15  -6679.140042  16700.761762 -18067.830674    106.733359
PR16  10044.601593   5835.739685 -22740.962811     -4.045213
PR17  -6191.927728  15746.835077 -19071.057748    331.714766
PR18   1824.763829  24992.296890  -4915.307888     38.255358
PR19   8120.938384  21293.471632  11453.132690    -97.179015
PR20  10757.361369   3371.779513  22888.184324   -413.830058
PR21   5749.093595 -16588.006863  18510.616308   -130.222554
PR22  -2873.519031 -25165.215905   2411.942413 999999.999999
PR23 -10254.778784 -16053.790696 -16975.633947    311.065749
PR24 -11175.264098  -2392.015758 -22794.326589      2.048459
PR26  11059.063153   8247.708049  21455.580528   -393.320863
EOF
